[{"OBJECT_NAME":"STARLINK-33817","OBJECT_ID":"2025-076Q","EPOCH":"2026-03-09T02:18:45.876384","MEAN_MOTION":15.2757819,"ECCENTRICITY":0.00013701,"INCLINATION":43.0025,"RA_OF_ASC_NODE":324.7015,"ARG_OF_PERICENTER":281.3058,"MEAN_ANOMALY":78.764,"EPHEMERIS_TYPE":0,"CLASSIFICATION_TYPE":"U","NORAD_CAT_ID":63583,"ELEMENT_SET_NO":999,"REV_AT_EPOCH":5173,"BSTAR":0.0013443181,"MEAN_MOTION_DOT":0.00036914,"MEAN_MOTION_DDOT":0},{"OBJECT_NAME":"FENGYUN 1C DEB","OBJECT_ID":"1999-025ETT","EPOCH":"2026-03-07T08:30:03.670560","MEAN_MOTION":15.28888299,"ECCENTRICITY":0.00158464,"INCLINATION":99.1103,"RA_OF_ASC_NODE":112.0072,"ARG_OF_PERICENTER":201.0032,"MEAN_ANOMALY":159.0553,"EPHEMERIS_TYPE":0,"CLASSIFICATION_TYPE":"U","NORAD_CAT_ID":38726,"ELEMENT_SET_NO":999,"REV_AT_EPOCH":71135,"BSTAR":0.013792546,"MEAN_MOTION_DOT":0.00409659,"MEAN_MOTION_DDOT":0}]
